{
  "norad_id": 53214,
  "name": "STARLINK-4353",
  "history": [
    {
      "epoch": "2026-04-10T10:32:39.142752Z",
      "apogee_km": 550.3505883494454,
      "perigee_km": 548.678253296458,
      "latitude_deg": 1.0363146943758106e-05,
      "longitude_deg": 164.53523772040015,
      "height_km": 552.7247575162799,
      "semi_major_axis_km": 6927.651420822951,
      "eccentricity": 0.0001207,
      "inclination_deg": 97.6042,
      "raan_deg": 161.3715,
      "arg_perigee_deg": 100.1288,
      "mean_anomaly_deg": 260.0075,
      "mean_motion_rev_day": 15.05648935
    },
    {
      "epoch": "2026-04-11T02:29:39.231456Z",
      "apogee_km": 550.4026355921233,
      "perigee_km": 548.630126198087,
      "latitude_deg": 9.592237962253884e-05,
      "longitude_deg": -74.71518897420049,
      "height_km": 552.7359649990311,
      "semi_major_axis_km": 6927.653380895104,
      "eccentricity": 0.00012793,
      "inclination_deg": 97.6039,
      "raan_deg": 162.0265,
      "arg_perigee_deg": 100.1655,
      "mean_anomaly_deg": 259.9717,
      "mean_motion_rev_day": 15.05648296
    },
    {
      "epoch": "2026-04-13T02:20:39.185664Z",
      "apogee_km": 550.3787547044794,
      "perigee_km": 548.6568168309286,
      "latitude_deg": 6.0468367730804335e-05,
      "longitude_deg": -72.46442446347278,
      "height_km": 552.749950239587,
      "semi_major_axis_km": 6927.654785767703,
      "eccentricity": 0.00012428,
      "inclination_deg": 97.6035,
      "raan_deg": 163.9922,
      "arg_perigee_deg": 101.3141,
      "mean_anomaly_deg": 258.8226,
      "mean_motion_rev_day": 15.05647838
    },
    {
      "epoch": "2026-04-14T15:01:45.345792Z",
      "apogee_km": 550.3467290230919,
      "perigee_km": 548.6896339036848,
      "latitude_deg": -1.5174016020984726e-05,
      "longitude_deg": 97.26021861333257,
      "height_km": 552.7434655606138,
      "semi_major_axis_km": 6927.655181463388,
      "eccentricity": 0.0001196,
      "inclination_deg": 97.6037,
      "raan_deg": 165.4991,
      "arg_perigee_deg": 101.2719,
      "mean_anomaly_deg": 258.8642,
      "mean_motion_rev_day": 15.05647709
    },
    {
      "epoch": "2026-04-15T16:32:56.723424Z",
      "apogee_km": 550.1289937269394,
      "perigee_km": 548.8792472688001,
      "latitude_deg": -1.772715501287906e-05,
      "longitude_deg": 74.46285203790481,
      "height_km": 552.7387385100405,
      "semi_major_axis_km": 6927.641120497869,
      "eccentricity": 9.02e-05,
      "inclination_deg": 97.603,
      "raan_deg": 166.5472,
      "arg_perigee_deg": 105.8592,
      "mean_anomaly_deg": 254.2734,
      "mean_motion_rev_day": 15.05652293
    },
    {
      "epoch": "2026-04-16T14:52:45.528096Z",
      "apogee_km": 550.383825690431,
      "perigee_km": 548.6754630959222,
      "latitude_deg": 5.982615441843773e-05,
      "longitude_deg": 99.51012104283807,
      "height_km": 552.785653446718,
      "semi_major_axis_km": 6927.666644393176,
      "eccentricity": 0.0001233,
      "inclination_deg": 97.6032,
      "raan_deg": 167.4649,
      "arg_perigee_deg": 103.0392,
      "mean_anomaly_deg": 257.0973,
      "mean_motion_rev_day": 15.05643972
    },
    {
      "epoch": "2026-04-17T21:11:03.508800Z",
      "apogee_km": 550.4288349927638,
      "perigee_km": 548.6281961719533,
      "latitude_deg": -1.6877339729100982e-05,
      "longitude_deg": 4.935531460162968,
      "height_km": 552.7858993658936,
      "semi_major_axis_km": 6927.665515582358,
      "eccentricity": 0.00012996,
      "inclination_deg": 97.6035,
      "raan_deg": 168.7098,
      "arg_perigee_deg": 102.4568,
      "mean_anomaly_deg": 257.6804,
      "mean_motion_rev_day": 15.0564434
    },
    {
      "epoch": "2026-04-18T09:56:39.398496Z",
      "apogee_km": 550.3930308455265,
      "perigee_km": 548.6600065396897,
      "latitude_deg": -6.424969244218629e-07,
      "longitude_deg": 173.53615571626867,
      "height_km": 552.7950620168956,
      "semi_major_axis_km": 6927.663518692608,
      "eccentricity": 0.00012508,
      "inclination_deg": 97.6035,
      "raan_deg": 169.234,
      "arg_perigee_deg": 103.7033,
      "mean_anomaly_deg": 256.4333,
      "mean_motion_rev_day": 15.05644991
    },
    {
      "epoch": "2026-04-19T09:52:09.610176Z",
      "apogee_km": 550.3992440433467,
      "perigee_km": 548.6623391746343,
      "latitude_deg": 1.8302427590310285e-07,
      "longitude_deg": 174.66030583377287,
      "height_km": 552.8077105995596,
      "semi_major_axis_km": 6927.66779160899,
      "eccentricity": 0.00012536,
      "inclination_deg": 97.6024,
      "raan_deg": 170.2166,
      "arg_perigee_deg": 104.2393,
      "mean_anomaly_deg": 255.8973,
      "mean_motion_rev_day": 15.05643598
    },
    {
      "epoch": "2026-04-20T11:23:21.374880Z",
      "apogee_km": 550.7849061503721,
      "perigee_km": 548.21973986185,
      "latitude_deg": -7.59829242069147e-05,
      "longitude_deg": 151.85972807379463,
      "height_km": 553.1248029658008,
      "semi_major_axis_km": 6927.639323006111,
      "eccentricity": 0.00018514,
      "inclination_deg": 97.5978,
      "raan_deg": 171.2631,
      "arg_perigee_deg": 115.8735,
      "mean_anomaly_deg": 244.2682,
      "mean_motion_rev_day": 15.05652879
    },
    {
      "epoch": "2026-04-21T16:05:56.986944Z",
      "apogee_km": 550.1800841330414,
      "perigee_km": 548.7100512182815,
      "latitude_deg": 1.513891088237794e-05,
      "longitude_deg": 81.21095609026837,
      "height_km": 552.8218012059883,
      "semi_major_axis_km": 6927.582067675661,
      "eccentricity": 0.0001061,
      "inclination_deg": 97.5951,
      "raan_deg": 172.4418,
      "arg_perigee_deg": 115.1818,
      "mean_anomaly_deg": 244.9519,
      "mean_motion_rev_day": 15.05671545
    },
    {
      "epoch": "2026-04-22T17:37:09.175008Z",
      "apogee_km": 550.2907558024772,
      "perigee_km": 548.5574800107779,
      "latitude_deg": -1.2787313860014687e-05,
      "longitude_deg": 58.40880224327979,
      "height_km": 552.8494764124827,
      "semi_major_axis_km": 6927.561117906627,
      "eccentricity": 0.0001251,
      "inclination_deg": 97.5926,
      "raan_deg": 173.4885,
      "arg_perigee_deg": 114.6578,
      "mean_anomaly_deg": 245.4779,
      "mean_motion_rev_day": 15.05678375
    },
    {
      "epoch": "2026-04-23T03:11:21.043680Z",
      "apogee_km": 550.219732826984,
      "perigee_km": 548.4492096683625,
      "latitude_deg": 4.7285317131986625e-05,
      "longitude_deg": -85.14608382986341,
      "height_km": 552.4866077620585,
      "semi_major_axis_km": 6927.4714712476725,
      "eccentricity": 0.00012779,
      "inclination_deg": 97.582,
      "raan_deg": 173.8761,
      "arg_perigee_deg": 95.7231,
      "mean_anomaly_deg": 264.4142,
      "mean_motion_rev_day": 15.05707602
    },
    {
      "epoch": "2026-04-24T15:52:27.520896Z",
      "apogee_km": 550.2986589562579,
      "perigee_km": 548.6845214947352,
      "latitude_deg": -6.756531845195179e-05,
      "longitude_deg": 84.57613597706167,
      "height_km": 552.8859243674111,
      "semi_major_axis_km": 6927.628590225496,
      "eccentricity": 0.0001165,
      "inclination_deg": 97.5815,
      "raan_deg": 175.3819,
      "arg_perigee_deg": 114.1443,
      "mean_anomaly_deg": 245.9905,
      "mean_motion_rev_day": 15.05656378
    },
    {
      "epoch": "2026-04-25T17:23:41.521632Z",
      "apogee_km": 550.4052571338252,
      "perigee_km": 548.6885770591689,
      "latitude_deg": 2.608070398847867e-05,
      "longitude_deg": 61.76219485530978,
      "height_km": 552.3649477801038,
      "semi_major_axis_km": 6927.683917096497,
      "eccentricity": 0.0001239,
      "inclination_deg": 97.5725,
      "raan_deg": 176.4244,
      "arg_perigee_deg": 73.34,
      "mean_anomaly_deg": 286.7963,
      "mean_motion_rev_day": 15.05638341
    },
    {
      "epoch": "2026-04-26T17:19:10.747488Z",
      "apogee_km": 550.2656245538728,
      "perigee_km": 548.747223668176,
      "latitude_deg": -5.3760701745420006e-05,
      "longitude_deg": 62.88747538996646,
      "height_km": 552.7015226714127,
      "semi_major_axis_km": 6927.643424111024,
      "eccentricity": 0.00010959,
      "inclination_deg": 97.5709,
      "raan_deg": 177.404,
      "arg_perigee_deg": 99.9097,
      "mean_anomaly_deg": 260.2253,
      "mean_motion_rev_day": 15.05651542
    },
    {
      "epoch": "2026-04-27T17:14:40.831296Z",
      "apogee_km": 549.9691294585045,
      "perigee_km": 549.101784866868,
      "latitude_deg": -2.3894622659862908e-05,
      "longitude_deg": 64.00535719257701,
      "height_km": 552.825463963043,
      "semi_major_axis_km": 6927.672457162686,
      "eccentricity": 6.26e-05,
      "inclination_deg": 97.5649,
      "raan_deg": 178.3798,
      "arg_perigee_deg": 121.1792,
      "mean_anomaly_deg": 238.9496,
      "mean_motion_rev_day": 15.05642077
    },
    {
      "epoch": "2026-04-28T02:48:52.452000Z",
      "apogee_km": 550.4796310319753,
      "perigee_km": 548.5149539466265,
      "latitude_deg": -5.138563261090113e-06,
      "longitude_deg": -79.54298617768308,
      "height_km": 552.9654151638147,
      "semi_major_axis_km": 6927.634292489301,
      "eccentricity": 0.0001418,
      "inclination_deg": 97.565,
      "raan_deg": 178.7729,
      "arg_perigee_deg": 114.2716,
      "mean_anomaly_deg": 245.8659,
      "mean_motion_rev_day": 15.05654519
    },
    {
      "epoch": "2026-04-29T17:05:40.005312Z",
      "apogee_km": 550.3202096732875,
      "perigee_km": 548.6201748683043,
      "latitude_deg": 3.073327780974349e-05,
      "longitude_deg": 66.25027245507621,
      "height_km": 552.9809395346343,
      "semi_major_axis_km": 6927.607192270796,
      "eccentricity": 0.0001227,
      "inclination_deg": 97.5548,
      "raan_deg": 180.3364,
      "arg_perigee_deg": 121.6246,
      "mean_anomaly_deg": 238.5101,
      "mean_motion_rev_day": 15.05663354
    }
  ]
}